STARLINK-33622          
1 63066U 25035Q   26068.56429284  .00030881  00000+0  11273-2 0  9993
2 63066  42.9986 147.5140 0001645 287.0242  73.0429 15.27571395 59716
TEVEL2-8                
1 63239U 25052AF  26068.66815442  .00019130  00000+0  69304-3 0  9993
2 63239  97.4055 324.2923 0008031 124.9191 235.2804 15.28392908 54807
